{"fetched_at":"2026-07-20T07:40:13.168Z","source":"https://celestrak.org/NORAD/elements/gp.php?GROUP=globalstar&FORMAT=JSON","constellation":"globalstar","records":[{"OBJECT_NAME":"GLOBALSTAR M069","OBJECT_ID":"2007-020C","EPOCH":"2026-07-19T20:39:38.964096","CLASSIFICATION_TYPE":"U","MEAN_MOTION":12.23472443,"ECCENTRICITY":0.0001528,"INCLINATION":52.0013,"RA_OF_ASC_NODE":159.6455,"ARG_OF_PERICENTER":220.1733,"MEAN_ANOMALY":162.0416,"EPHEMERIS_TYPE":0,"NORAD_CAT_ID":31573,"ELEMENT_SET_NO":999,"REV_AT_EPOCH":88280,"BSTAR":0.0003831,"MEAN_MOTION_DOT":-5.1e-7,"MEAN_MOTION_DDOT":0},{"OBJECT_NAME":"GLOBALSTAR M072","OBJECT_ID":"2007-020D","EPOCH":"2026-07-19T20:50:28.099392","CLASSIFICATION_TYPE":"U","MEAN_MOTION":11.9165875,"ECCENTRICITY":0.000165,"INCLINATION":51.9951,"RA_OF_ASC_NODE":13.2391,"ARG_OF_PERICENTER":44.2299,"MEAN_ANOMALY":104.8915,"EPHEMERIS_TYPE":0,"NORAD_CAT_ID":31574,"ELEMENT_SET_NO":999,"REV_AT_EPOCH":87887,"BSTAR":-0.000077973,"MEAN_MOTION_DOT":-9e-7,"MEAN_MOTION_DDOT":0},{"OBJECT_NAME":"GLOBALSTAR M066","OBJECT_ID":"2007-048C","EPOCH":"2026-07-19T18:09:32.115744","CLASSIFICATION_TYPE":"U","MEAN_MOTION":12.3039002,"ECCENTRICITY":0.000554,"INCLINATION":51.9612,"RA_OF_ASC_NODE":324.4163,"ARG_OF_PERICENTER":110.8827,"MEAN_ANOMALY":54.0199,"EPHEMERIS_TYPE":0,"NORAD_CAT_ID":32265,"ELEMENT_SET_NO":999,"REV_AT_EPOCH":86423,"BSTAR":0.0004695,"MEAN_MOTION_DOT":-3.9e-7,"MEAN_MOTION_DDOT":0},{"OBJECT_NAME":"GLOBALSTAR M079","OBJECT_ID":"2010-054A","EPOCH":"2026-07-19T20:35:49.704288","CLASSIFICATION_TYPE":"U","MEAN_MOTION":12.62266406,"ECCENTRICITY":0.0001125,"INCLINATION":52.0056,"RA_OF_ASC_NODE":9.2143,"ARG_OF_PERICENTER":85.4441,"MEAN_ANOMALY":61.785,"EPHEMERIS_TYPE":0,"NORAD_CAT_ID":37188,"ELEMENT_SET_NO":999,"REV_AT_EPOCH":72667,"BSTAR":-0.0000195,"MEAN_MOTION_DOT":-0.00000107,"MEAN_MOTION_DDOT":0},{"OBJECT_NAME":"GLOBALSTAR M074","OBJECT_ID":"2010-054B","EPOCH":"2026-07-19T21:19:16.330944","CLASSIFICATION_TYPE":"U","MEAN_MOTION":12.62262061,"ECCENTRICITY":0.0000855,"INCLINATION":52.0035,"RA_OF_ASC_NODE":8.383,"ARG_OF_PERICENTER":99.8307,"MEAN_ANOMALY":64.4636,"EPHEMERIS_TYPE":0,"NORAD_CAT_ID":37189,"ELEMENT_SET_NO":999,"REV_AT_EPOCH":72728,"BSTAR":-0.000011119,"MEAN_MOTION_DOT":-0.00000106,"MEAN_MOTION_DDOT":0},{"OBJECT_NAME":"GLOBALSTAR M076","OBJECT_ID":"2010-054C","EPOCH":"2026-07-19T11:45:52.631136","CLASSIFICATION_TYPE":"U","MEAN_MOTION":12.62262543,"ECCENTRICITY":0.00010955,"INCLINATION":52.005,"RA_OF_ASC_NODE":9.8014,"ARG_OF_PERICENTER":98.1215,"MEAN_ANOMALY":295.7676,"EPHEMERIS_TYPE":0,"NORAD_CAT_ID":37190,"ELEMENT_SET_NO":999,"REV_AT_EPOCH":72695,"BSTAR":0.000058016885,"MEAN_MOTION_DOT":-9.3e-7,"MEAN_MOTION_DDOT":0},{"OBJECT_NAME":"GLOBALSTAR M077","OBJECT_ID":"2010-054D","EPOCH":"2026-07-19T17:36:50.001984","CLASSIFICATION_TYPE":"U","MEAN_MOTION":11.67547211,"ECCENTRICITY":0.0002186,"INCLINATION":51.9961,"RA_OF_ASC_NODE":96.6871,"ARG_OF_PERICENTER":233.4561,"MEAN_ANOMALY":159.4197,"EPHEMERIS_TYPE":0,"NORAD_CAT_ID":37191,"ELEMENT_SET_NO":999,"REV_AT_EPOCH":72494,"BSTAR":-0.00037983,"MEAN_MOTION_DOT":-9.9e-7,"MEAN_MOTION_DDOT":0},{"OBJECT_NAME":"GLOBALSTAR M075","OBJECT_ID":"2010-054E","EPOCH":"2026-07-19T21:28:30.092736","CLASSIFICATION_TYPE":"U","MEAN_MOTION":12.62267911,"ECCENTRICITY":0.0000785,"INCLINATION":51.9955,"RA_OF_ASC_NODE":50.6053,"ARG_OF_PERICENTER":71.6909,"MEAN_ANOMALY":302.2721,"EPHEMERIS_TYPE":0,"NORAD_CAT_ID":37192,"ELEMENT_SET_NO":999,"REV_AT_EPOCH":72607,"BSTAR":0.00000711,"MEAN_MOTION_DOT":-0.00000103,"MEAN_MOTION_DDOT":0},{"OBJECT_NAME":"GLOBALSTAR M073","OBJECT_ID":"2010-054F","EPOCH":"2026-07-19T12:19:00.193152","CLASSIFICATION_TYPE":"U","MEAN_MOTION":12.62266923,"ECCENTRICITY":0.00010192,"INCLINATION":52.0081,"RA_OF_ASC_NODE":325.8934,"ARG_OF_PERICENTER":102.4258,"MEAN_ANOMALY":334.9601,"EPHEMERIS_TYPE":0,"NORAD_CAT_ID":37193,"ELEMENT_SET_NO":999,"REV_AT_EPOCH":72801,"BSTAR":0.000031452101,"MEAN_MOTION_DOT":-9.8e-7,"MEAN_MOTION_DDOT":0},{"OBJECT_NAME":"GLOBALSTAR M083","OBJECT_ID":"2011-033A","EPOCH":"2026-07-19T14:53:46.644864","CLASSIFICATION_TYPE":"U","MEAN_MOTION":12.62264353,"ECCENTRICITY":0.00007,"INCLINATION":51.9857,"RA_OF_ASC_NODE":273.7518,"ARG_OF_PERICENTER":110.5931,"MEAN_ANOMALY":36.6997,"EPHEMERIS_TYPE":0,"NORAD_CAT_ID":37739,"ELEMENT_SET_NO":999,"REV_AT_EPOCH":69704,"BSTAR":0.00010078,"MEAN_MOTION_DOT":-8.6e-7,"MEAN_MOTION_DDOT":0},{"OBJECT_NAME":"GLOBALSTAR M088","OBJECT_ID":"2011-033B","EPOCH":"2026-07-19T21:08:40.622208","CLASSIFICATION_TYPE":"U","MEAN_MOTION":12.62269478,"ECCENTRICITY":0.0000134,"INCLINATION":52.019,"RA_OF_ASC_NODE":179.4632,"ARG_OF_PERICENTER":41.6119,"MEAN_ANOMALY":328.0695,"EPHEMERIS_TYPE":0,"NORAD_CAT_ID":37740,"ELEMENT_SET_NO":999,"REV_AT_EPOCH":69262,"BSTAR":0.000013156,"MEAN_MOTION_DOT":-0.00000101,"MEAN_MOTION_DDOT":0},{"OBJECT_NAME":"GLOBALSTAR M091","OBJECT_ID":"2011-033C","EPOCH":"2026-07-19T19:36:01.730016","CLASSIFICATION_TYPE":"U","MEAN_MOTION":12.6226428,"ECCENTRICITY":0.0000532,"INCLINATION":51.9987,"RA_OF_ASC_NODE":142.5762,"ARG_OF_PERICENTER":32.6194,"MEAN_ANOMALY":345.089,"EPHEMERIS_TYPE":0,"NORAD_CAT_ID":37741,"ELEMENT_SET_NO":999,"REV_AT_EPOCH":69340,"BSTAR":0.000090152,"MEAN_MOTION_DOT":-8.8e-7,"MEAN_MOTION_DDOT":0},{"OBJECT_NAME":"GLOBALSTAR M085","OBJECT_ID":"2011-033D","EPOCH":"2026-07-19T17:27:58.876128","CLASSIFICATION_TYPE":"U","MEAN_MOTION":12.62264446,"ECCENTRICITY":0.0000864,"INCLINATION":52.0128,"RA_OF_ASC_NODE":94.168,"ARG_OF_PERICENTER":48.808,"MEAN_ANOMALY":344.6332,"EPHEMERIS_TYPE":0,"NORAD_CAT_ID":37742,"ELEMENT_SET_NO":999,"REV_AT_EPOCH":69390,"BSTAR":0.000089467,"MEAN_MOTION_DOT":-8.8e-7,"MEAN_MOTION_DDOT":0},{"OBJECT_NAME":"GLOBALSTAR M081","OBJECT_ID":"2011-033E","EPOCH":"2026-07-19T18:06:09.859392","CLASSIFICATION_TYPE":"U","MEAN_MOTION":12.62265355,"ECCENTRICITY":0.0000752,"INCLINATION":51.9959,"RA_OF_ASC_NODE":96.4861,"ARG_OF_PERICENTER":61.0095,"MEAN_ANOMALY":332.8593,"EPHEMERIS_TYPE":0,"NORAD_CAT_ID":37743,"ELEMENT_SET_NO":999,"REV_AT_EPOCH":69405,"BSTAR":0.000070397,"MEAN_MOTION_DOT":-9.1e-7,"MEAN_MOTION_DDOT":0},{"OBJECT_NAME":"GLOBALSTAR M089","OBJECT_ID":"2011-033F","EPOCH":"2026-07-19T20:50:21.437952","CLASSIFICATION_TYPE":"U","MEAN_MOTION":12.62267634,"ECCENTRICITY":0.0000722,"INCLINATION":51.9941,"RA_OF_ASC_NODE":50.2913,"ARG_OF_PERICENTER":94.9371,"MEAN_ANOMALY":278.465,"EPHEMERIS_TYPE":0,"NORAD_CAT_ID":37744,"ELEMENT_SET_NO":999,"REV_AT_EPOCH":69491,"BSTAR":-5.3741e-7,"MEAN_MOTION_DOT":-0.00000104,"MEAN_MOTION_DDOT":0},{"OBJECT_NAME":"GLOBALSTAR M084","OBJECT_ID":"2011-080A","EPOCH":"2026-07-19T11:39:15.515136","CLASSIFICATION_TYPE":"U","MEAN_MOTION":12.62263669,"ECCENTRICITY":0.0000737,"INCLINATION":52.0012,"RA_OF_ASC_NODE":278.957,"ARG_OF_PERICENTER":137.6772,"MEAN_ANOMALY":235.5413,"EPHEMERIS_TYPE":0,"NORAD_CAT_ID":38040,"ELEMENT_SET_NO":999,"REV_AT_EPOCH":67284,"BSTAR":0.00010119254,"MEAN_MOTION_DOT":-8.6e-7,"MEAN_MOTION_DDOT":0}]}
